{
    "links": {
        "self": "http://www.neowsapp.com/rest/v1/neo/3653256?api_key=iIulBulltgU6a56xZRHN4H3l9WmuAYTsLGpBGhQ2"
    },
    "id": "3653256",
    "neo_reference_id": "3653256",
    "name": "(2013 UO5)",
    "designation": "2013 UO5",
    "nasa_jpl_url": "http://ssd.jpl.nasa.gov/sbdb.cgi?sstr=3653256",
    "absolute_magnitude_h": 23.2,
    "estimated_diameter": {
        "kilometers": {
            "estimated_diameter_min": 0.0608912622,
            "estimated_diameter_max": 0.1361570015
        },
        "meters": {
            "estimated_diameter_min": 60.8912622106,
            "estimated_diameter_max": 136.1570015386
        },
        "miles": {
            "estimated_diameter_min": 0.0378360645,
            "estimated_diameter_max": 0.0846040122
        },
        "feet": {
            "estimated_diameter_min": 199.7744887109,
            "estimated_diameter_max": 446.7093369279
        }
    },
    "is_potentially_hazardous_asteroid": false,
    "close_approach_data": [
        {
            "close_approach_date": "2013-10-07",
            "close_approach_date_full": "2013-Oct-07 15:14",
            "epoch_date_close_approach": 1381158840000,
            "relative_velocity": {
                "kilometers_per_second": "2.0802239446",
                "kilometers_per_hour": "7488.8062006096",
                "miles_per_hour": "4653.2529417066"
            },
            "miss_distance": {
                "astronomical": "0.2720065864",
                "lunar": "105.8105621096",
                "kilometers": "40691605.951410968",
                "miles": "25284591.4761206384"
            },
            "orbiting_body": "Earth"
        }
    ],
    "orbital_data": {
        "orbit_id": "5",
        "orbit_determination_date": "2019-07-11 06:01:26",
        "first_observation_date": "2013-10-24",
        "last_observation_date": "2013-10-26",
        "data_arc_in_days": 2,
        "observations_used": 12,
        "orbit_uncertainty": "9",
        "minimum_orbit_intersection": ".270388",
        "jupiter_tisserand_invariant": "3.588",
        "epoch_osculation": "2456590.5",
        "eccentricity": ".4156953925705254",
        "semi_major_axis": "2.146580308202335",
        "inclination": "4.843977657246763",
        "ascending_node_longitude": "84.89094138188783",
        "orbital_period": "1148.733108538547",
        "perihelion_distance": "1.254256764300006",
        "perihelion_argument": "292.3058149593981",
        "aphelion_distance": "3.038903852104664",
        "perihelion_time": "2456577.973409797493",
        "mean_anomaly": "3.925692085814203",
        "mean_motion": ".3133887213001138",
        "equinox": "J2000",
        "orbit_class": {
            "orbit_class_type": "AMO",
            "orbit_class_description": "Near-Earth asteroid orbits similar to that of 1221 Amor",
            "orbit_class_range": "1.017 AU < q (perihelion) < 1.3 AU"
        }
    },
    "is_sentry_object": false
}